start=new Date('2022-01-29T00:00:00.000Z').valueOf();
sats=[{"INCLINATION":"53.0575","MEAN_MOTION_DDOT":"0.0000000000000","MEAN_MOTION_DOT":"0.00000396","ECCENTRICITY":"0.00018440","PERIOD":"95.592","GP_ID":"194844844","EPOCH":"2022-01-28T21:31:29.675136","PERIAPSIS":"545.937","OBJECT_NAME":"STARLINK-2578","CLASSIFICATION_TYPE":"U","SITE":"AFETR","CENTER_NAME":"EARTH","COUNTRY_CODE":"US","RCS_SIZE":"LARGE","EPHEMERIS_TYPE":"0","BSTAR":"0.00004546800000","LAUNCH_DATE":"2021-05-04","SEMIMAJOR_AXIS":"6925.349","RA_OF_ASC_NODE":"258.9359","MEAN_ANOMALY":"299.1019","TLE_LINE1":"1 48362U 21038K   22028.89687124  .00000396  00000-0  45468-4 0  9995","REV_AT_EPOCH":"4082","DECAY_DATE":null,"REF_FRAME":"TEME","NORAD_CAT_ID":"48362","APOAPSIS":"548.491","FILE":"3286235","ARG_OF_PERICENTER":"61.0155","MEAN_ELEMENT_THEORY":"SGP4","TLE_LINE2":"2 48362  53.0575 258.9359 0001844  61.0155 299.1019 15.06399861 40829","OBJECT_TYPE":"PAYLOAD","TIME_SYSTEM":"UTC","OBJECT_ID":"2021-038K","ELEMENT_SET_NO":"999","MEAN_MOTION":"15.06399861"},{"OBJECT_ID":"2021-038L","MEAN_MOTION":"15.06396491","ELEMENT_SET_NO":"999","DECAY_DATE":null,"REV_AT_EPOCH":"4088","NORAD_CAT_ID":"48363","REF_FRAME":"TEME","APOAPSIS":"548.459","FILE":"3286235","ARG_OF_PERICENTER":"78.7150","TLE_LINE2":"2 48363  53.0547 254.1504 0001783  78.7150 281.4039 15.06396491 40889","MEAN_ELEMENT_THEORY":"SGP4","OBJECT_TYPE":"PAYLOAD","TIME_SYSTEM":"UTC","COUNTRY_CODE":"US","RCS_SIZE":"LARGE","EPHEMERIS_TYPE":"0","RA_OF_ASC_NODE":"254.1504","BSTAR":"-0.00002791400000","LAUNCH_DATE":"2021-05-04","SEMIMAJOR_AXIS":"6925.359","TLE_LINE1":"1 48363U 21038L   22028.84851849 -.00000697  00000-0 -27914-4 0  9990","MEAN_ANOMALY":"281.4039","MEAN_MOTION_DDOT":"0.0000000000000","INCLINATION":"53.0547","ECCENTRICITY":"0.00017830","MEAN_MOTION_DOT":"-0.00000697","PERIOD":"95.592","GP_ID":"194843592","CLASSIFICATION_TYPE":"U","OBJECT_NAME":"STARLINK-2626","PERIAPSIS":"545.990","EPOCH":"2022-01-28T20:21:51.997536","CENTER_NAME":"EARTH","SITE":"AFETR"},{"EPHEMERIS_TYPE":"0","RCS_SIZE":"LARGE","COUNTRY_CODE":"US","MEAN_ANOMALY":"292.3189","TLE_LINE1":"1 48364U 21038M   22028.91023595 -.00000419  00000-0 -92352-5 0  9999","LAUNCH_DATE":"2021-05-04","SEMIMAJOR_AXIS":"6925.359","BSTAR":"-0.00000923520000","RA_OF_ASC_NODE":"253.8784","PERIOD":"95.592","ECCENTRICITY":"0.00018160","MEAN_MOTION_DOT":"-0.00000419","INCLINATION":"53.0553","MEAN_MOTION_DDOT":"0.0000000000000","CENTER_NAME":"EARTH","SITE":"AFETR","EPOCH":"2022-01-28T21:50:44.386080","PERIAPSIS":"545.967","CLASSIFICATION_TYPE":"U","OBJECT_NAME":"STARLINK-2611","GP_ID":"194843842","ELEMENT_SET_NO":"999","MEAN_MOTION":"15.06396515","OBJECT_ID":"2021-038M","APOAPSIS":"548.482","REF_FRAME":"TEME","NORAD_CAT_ID":"48364","REV_AT_EPOCH":"4089","DECAY_DATE":null,"TIME_SYSTEM":"UTC","OBJECT_TYPE":"PAYLOAD","MEAN_ELEMENT_THEORY":"SGP4","TLE_LINE2":"2 48364  53.0553 253.8784 0001816  67.7993 292.3189 15.06396515 40898","ARG_OF_PERICENTER":"67.7993","FILE":"3286235"},{"RCS_SIZE":"LARGE","COUNTRY_CODE":"US","EPHEMERIS_TYPE":"0","RA_OF_ASC_NODE":"253.9838","LAUNCH_DATE":"2021-05-04","BSTAR":"0.00009866500000","SEMIMAJOR_AXIS":"6925.338","TLE_LINE1":"1 48365U 21038N   22028.88905214  .00001188  00000-0  98665-4 0  9997","MEAN_ANOMALY":"290.3635","MEAN_MOTION_DDOT":"0.0000000000000","INCLINATION":"53.0560","PERIOD":"95.592","ECCENTRICITY":"0.00018350","MEAN_MOTION_DOT":"0.00001188","CLASSIFICATION_TYPE":"U","OBJECT_NAME":"STARLINK-2608","EPOCH":"2022-01-28T21:20:14.104896","PERIAPSIS":"545.932","GP_ID":"194844594","CENTER_NAME":"EARTH","SITE":"AFETR","OBJECT_ID":"2021-038N","MEAN_MOTION":"15.06403405","ELEMENT_SET_NO":"999","NORAD_CAT_ID":"48365","REF_FRAME":"TEME","DECAY_DATE":null,"REV_AT_EPOCH":"4089","APOAPSIS":"548.474","TLE_LINE2":"2 48365  53.0560 253.9838 0001835  69.7551 290.3635 15.06403405 40892","MEAN_ELEMENT_THEORY":"SGP4","ARG_OF_PERICENTER":"69.7551","FILE":"3286235","TIME_SYSTEM":"UTC","OBJECT_TYPE":"PAYLOAD"},{"PERIAPSIS":"545.846","EPOCH":"2022-01-28T21:02:20.363712","OBJECT_NAME":"STARLINK-2631","CLASSIFICATION_TYPE":"U","GP_ID":"194845344","SITE":"AFETR","CENTER_NAME":"EARTH","INCLINATION":"53.0544","MEAN_MOTION_DDOT":"0.0000000000000","PERIOD":"95.592","MEAN_MOTION_DOT":"0.00001643","ECCENTRICITY":"0.00019740","SEMIMAJOR_AXIS":"6925.348","LAUNCH_DATE":"2021-05-04","BSTAR":"0.00012915000000","RA_OF_ASC_NODE":"249.0238","MEAN_ANOMALY":"287.7984","TLE_LINE1":"1 48366U 21038P   22028.87662458  .00001643  00000-0  12915-3 0  9996","RCS_SIZE":"LARGE","COUNTRY_CODE":"US","EPHEMERIS_TYPE":"0","MEAN_ELEMENT_THEORY":"SGP4","TLE_LINE2":"2 48366  53.0544 249.0238 0001974  72.3221 287.7984 15.06400215 40953","FILE":"3286235","ARG_OF_PERICENTER":"72.3221","TIME_SYSTEM":"UTC","OBJECT_TYPE":"PAYLOAD","REF_FRAME":"TEME","NORAD_CAT_ID":"48366","REV_AT_EPOCH":"4095","DECAY_DATE":null,"APOAPSIS":"548.580","OBJECT_ID":"2021-038P","ELEMENT_SET_NO":"999","MEAN_MOTION":"15.06400215"},{"FILE":"3286235","ARG_OF_PERICENTER":"65.5914","TLE_LINE2":"2 48367  53.0541 249.0553 0001700  65.5914 294.5252 15.06398312 40959","MEAN_ELEMENT_THEORY":"SGP4","OBJECT_TYPE":"PAYLOAD","TIME_SYSTEM":"UTC","DECAY_DATE":null,"REV_AT_EPOCH":"4095","NORAD_CAT_ID":"48367","REF_FRAME":"TEME","APOAPSIS":"548.396","OBJECT_ID":"2021-038Q","MEAN_MOTION":"15.06398312","ELEMENT_SET_NO":"999","GP_ID":"194844092","CLASSIFICATION_TYPE":"U","OBJECT_NAME":"STARLINK-2643","PERIAPSIS":"546.041","EPOCH":"2022-01-28T20:57:01.779264","SITE":"AFETR","CENTER_NAME":"EARTH","MEAN_MOTION_DDOT":"0.0000000000000","INCLINATION":"53.0541","ECCENTRICITY":"0.00017000","MEAN_MOTION_DOT":"-0.00000589","PERIOD":"95.592","RA_OF_ASC_NODE":"249.0553","BSTAR":"-0.00002063600000","LAUNCH_DATE":"2021-05-04","SEMIMAJOR_AXIS":"6925.354","TLE_LINE1":"1 48367U 21038Q   22028.87293726 -.00000589  00000-0 -20636-4 0  9995","MEAN_ANOMALY":"294.5252","COUNTRY_CODE":"US","RCS_SIZE":"LARGE","EPHEMERIS_TYPE":"0"},{"MEAN_MOTION_DDOT":"0.0000000000000","INCLINATION":"53.0541","PERIOD":"95.592","MEAN_MOTION_DOT":"0.00001762","ECCENTRICITY":"0.00017530","OBJECT_NAME":"STARLINK-2623","CLASSIFICATION_TYPE":"U","EPOCH":"2022-01-28T21:22:12.631008","PERIAPSIS":"545.990","GP_ID":"194844342","SITE":"AFETR","CENTER_NAME":"EARTH","RCS_SIZE":"LARGE","COUNTRY_CODE":"US","EPHEMERIS_TYPE":"0","RA_OF_ASC_NODE":"248.9579","LAUNCH_DATE":"2021-05-04","BSTAR":"0.00013714000000","SEMIMAJOR_AXIS":"6925.339","TLE_LINE1":"1 48368U 21038R   22028.89042397  .00001762  00000-0  13714-3 0  9994","MEAN_ANOMALY":"292.9357","NORAD_CAT_ID":"48368","REF_FRAME":"TEME","DECAY_DATE":null,"REV_AT_EPOCH":"4096","APOAPSIS":"548.418","TLE_LINE2":"2 48368  53.0541 248.9579 0001753  67.1817 292.9357 15.06403228 40966","MEAN_ELEMENT_THEORY":"SGP4","FILE":"3286235","ARG_OF_PERICENTER":"67.1817","TIME_SYSTEM":"UTC","OBJECT_TYPE":"PAYLOAD","OBJECT_ID":"2021-038R","MEAN_MOTION":"15.06403228","ELEMENT_SET_NO":"999"},{"RCS_SIZE":"LARGE","COUNTRY_CODE":"US","EPHEMERIS_TYPE":"0","LAUNCH_DATE":"2021-05-04","SEMIMAJOR_AXIS":"6925.356","BSTAR":"-0.00002642700000","RA_OF_ASC_NODE":"249.0506","MEAN_ANOMALY":"293.9577","TLE_LINE1":"1 48369U 21038S   22028.86925086 -.00000675  00000-0 -26427-4 0  9997","INCLINATION":"53.0530","MEAN_MOTION_DDOT":"0.0000000000000","PERIOD":"95.592","ECCENTRICITY":"0.00017420","MEAN_MOTION_DOT":"-0.00000675","PERIAPSIS":"546.015","EPOCH":"2022-01-28T20:51:43.274304","CLASSIFICATION_TYPE":"U","OBJECT_NAME":"STARLINK-2641","GP_ID":"194845094","SITE":"AFETR","CENTER_NAME":"EARTH","OBJECT_ID":"2021-038S","ELEMENT_SET_NO":"999","MEAN_MOTION":"15.06397441","REF_FRAME":"TEME","NORAD_CAT_ID":"48369","REV_AT_EPOCH":"4095","DECAY_DATE":null,"APOAPSIS":"548.428","TLE_LINE2":"2 48369  53.0530 249.0506 0001742  66.1594 293.9577 15.06397441 40959","MEAN_ELEMENT_THEORY":"SGP4","FILE":"3286235","ARG_OF_PERICENTER":"66.1594","TIME_SYSTEM":"UTC","OBJECT_TYPE":"PAYLOAD"},{"APOAPSIS":"548.442","DECAY_DATE":null,"REV_AT_EPOCH":"4095","NORAD_CAT_ID":"48370","REF_FRAME":"TEME","OBJECT_TYPE":"PAYLOAD","TIME_SYSTEM":"UTC","FILE":"3286235","ARG_OF_PERICENTER":"69.4090","TLE_LINE2":"2 48370  53.0546 249.0749 0001745  69.4090 290.7086 15.06393344 40955","MEAN_ELEMENT_THEORY":"SGP4","MEAN_MOTION":"15.06393344","ELEMENT_SET_NO":"999","OBJECT_ID":"2021-038T","MEAN_MOTION_DOT":"0.00001520","ECCENTRICITY":"0.00017450","PERIOD":"95.593","MEAN_MOTION_DDOT":"0.0000000000000","INCLINATION":"53.0546","CENTER_NAME":"EARTH","SITE":"AFETR","GP_ID":"194844845","CLASSIFICATION_TYPE":"U","OBJECT_NAME":"STARLINK-2621","EPOCH":"2022-01-28T20:46:24.880800","PERIAPSIS":"546.025","EPHEMERIS_TYPE":"0","COUNTRY_CODE":"US","RCS_SIZE":"LARGE","TLE_LINE1":"1 48370U 21038T   22028.86556575  .00001520  00000-0  12095-3 0  9995","MEAN_ANOMALY":"290.7086","RA_OF_ASC_NODE":"249.0749","SEMIMAJOR_AXIS":"6925.369","LAUNCH_DATE":"2021-05-04","BSTAR":"0.00012095000000"},{"MEAN_ELEMENT_THEORY":"SGP4","TLE_LINE2":"2 48371  53.0554 249.1060 0001928  65.7868 294.3323 15.06397162 40953","ARG_OF_PERICENTER":"65.7868","FILE":"3286235","TIME_SYSTEM":"UTC","OBJECT_TYPE":"PAYLOAD","REF_FRAME":"TEME","NORAD_CAT_ID":"48371","REV_AT_EPOCH":"4095","DECAY_DATE":null,"APOAPSIS":"548.557","OBJECT_ID":"2021-038U","ELEMENT_SET_NO":"999","MEAN_MOTION":"15.06397162","EPOCH":"2022-01-28T20:41:06.579744","PERIAPSIS":"545.887","OBJECT_NAME":"STARLINK-2589","CLASSIFICATION_TYPE":"U","GP_ID":"194843593","CENTER_NAME":"EARTH","SITE":"AFETR","INCLINATION":"53.0554","MEAN_MOTION_DDOT":"0.0000000000000","PERIOD":"95.592","MEAN_MOTION_DOT":"-0.00000497","ECCENTRICITY":"0.00019280","SEMIMAJOR_AXIS":"6925.357","LAUNCH_DATE":"2021-05-04","BSTAR":"-0.00001447700000","RA_OF_ASC_NODE":"249.1060","MEAN_ANOMALY":"294.3323","TLE_LINE1":"1 48371U 21038U   22028.86188171 -.00000497  00000-0 -14477-4 0  9990","RCS_SIZE":"LARGE","COUNTRY_CODE":"US","EPHEMERIS_TYPE":"0"}];
